STARLINK-32026          
1 60098U 24117H   26170.69068330  .00000437  00000+0  26875-4 0  9994
2 60098  53.1600 283.3165 0001007  99.1797 260.9317 15.30204534112502
STARLINK-31732          
1 60099U 24117J   26169.61293647  .00000653  00000+0  34157-4 0  9998
2 60099  53.1621 287.9651 0001039  94.0273 266.0847 15.30205647112347
STARLINK-31996          
1 60100U 24117K   26170.60637226  .00004769  00000+0  17299-3 0  9996
2 60100  53.1606 283.4980 0000772 105.1841 254.9245 15.30208521112495
STARLINK-31999          
1 60101U 24117L   26170.58644496 -.00000678  00000+0 -10780-4 0  9997
2 60101  53.1614 284.0859 0001233  80.5744 279.5397 15.30197386112484
STARLINK-31954          
1 60102U 24117M   26170.58009536 -.00007374  00000+0 -23675-3 0  9994
2 60102  53.1615 284.0502 0001195  99.9975 260.1161 15.30242571112480
STARLINK-32013          
1 60103U 24117N   26170.57695306 -.00002105  00000+0 -59003-4 0  9992
2 60103  53.1608 284.0275 0001049  89.8187 270.2934 15.30185213112480
STARLINK-32009          
1 60104U 24117P   26170.91668981 -.00011279  00000+0 -32347-3 0  9993
2 60104  53.1597 282.4998 0002242  70.3264 324.0713 15.34367962  5873
STARLINK-32018          
1 60105U 24117Q   26170.91668981 -.00016084  00000+0 -46592-3 0  9990
2 60105  53.1590 282.2964 0001787  81.4063  69.1567 15.34396885  5871
STARLINK-32045          
1 60106U 24117R   26170.91668981 -.00019433  00000+0 -56542-3 0  9998
2 60106  53.1582 282.2288 0001296  81.2890 104.1624 15.34402829  5873
STARLINK-32035          
1 60107U 24117S   26170.68752276 -.00000434  00000+0 -25112-5 0  9996
2 60107  53.1609 283.2953 0001280  88.3064 271.8083 15.30201320112507
STARLINK-32042          
1 60108U 24117T   26170.61271198 -.00000807  00000+0 -15118-4 0  9997
2 60108  53.1605 283.5387 0001128  98.3422 261.7707 15.30200631112491
STARLINK-32040          
1 60109U 24117U   26170.59477327  .00000233  00000+0  19980-4 0  9999
2 60109  53.1603 283.4297 0001086  80.1625 279.9499 15.30197400112494
STARLINK-32001          
1 60110U 24117V   26170.60321328  .00001185  00000+0  52109-4 0  9999
2 60110  53.1603 283.4771 0001191  86.7756 273.3381 15.30206261112491
STARLINK-32015          
1 60111U 24117W   26170.59688471 -.00000257  00000+0  34371-5 0  9995
2 60111  53.1595 283.4372 0000687  60.6495 299.4575 15.30196183112494
STARLINK-32024          
1 60112U 24117X   26170.60954653  .00000204  00000+0  19018-4 0  9997
2 60112  53.1604 283.5162 0001000  87.6992 272.4124 15.30196582112499
STARLINK-11201 [DTC]    
1 60113U 24118A   26170.71732771  .00000572  00000+0  95751-5 0  9993
2 60113  53.1585  78.6157 0000918  88.8013 271.3110 15.69713581114018
STARLINK-11198 [DTC]    
1 60114U 24118B   26170.45774863  .00001462  00000+0  16921-4 0  9993
2 60114  53.1587  79.8407 0001038 102.0779 258.0356 15.69711692113973
STARLINK-11112 [DTC]    
1 60115U 24118C   26170.77117842  .00001080  00000+0  13762-4 0  9993
2 60115  53.1590  78.2370 0001007 102.3208 257.7923 15.69721788114026
STARLINK-11210 [DTC]    
1 60116U 24118D   26170.44793920  .00002997  00000+0  29580-4 0  9998
2 60116  53.1601  79.7761 0001072  93.8413 266.2727 15.69716216113974
STARLINK-11203 [DTC]    
1 60117U 24118E   26170.12468788  .00000388  00000+0  80617-5 0  9996
2 60117  53.1591  81.3112 0001013 104.4596 255.6534 15.69703922113921
STARLINK-11177 [DTC]    
1 60118U 24118F   26170.75646364  .00000444  00000+0  85226-5 0  9998
2 60118  53.1600  78.1401 0001055  93.5951 266.5188 15.69722164114024
STARLINK-11127 [DTC]    
1 60119U 24118G   26170.05121319 -.00003489  00000+0 -23942-4 0  9990
2 60119  53.1597  81.5611 0001121  99.0875 261.0270 15.69716444113914
STARLINK-11164 [DTC]    
1 60120U 24118H   26170.04630431 -.00000906  00000+0 -26185-5 0  9995
2 60120  53.1596  81.5283 0001217  97.2645 262.8512 15.69716346113910
STARLINK-11119 [DTC]    
1 60121U 24118J   26170.47726595  .00000993  00000+0  13052-4 0  9992
2 60121  53.1595  79.2335 0001021  78.5384 281.5749 15.69712135113986
STARLINK-11157 [DTC]    
1 60122U 24118K   26170.16382792  .00000595  00000+0  97720-5 0  9999
2 60122  53.1593  80.8329 0001068  88.8271 271.2869 15.69709563113931
STARLINK-11162 [DTC]    
1 60123U 24118L   26170.47236451  .00002051  00000+0  21783-4 0  9998
2 60123  53.1600  79.1980 0001175  94.8910 265.2243 15.69707594113987
STARLINK-11161 [DTC]    
1 60124U 24118M   26170.46755744  .00000461  00000+0  86680-5 0  9990
2 60124  53.1600  79.8996 0001258  99.7409 260.3751 15.69711475113973
STARLINK-11160 [DTC]    
1 60125U 24118N   26170.04139903 -.00000763  00000+0 -14439-5 0  9998
2 60125  53.1577  81.4918 0000743  78.7426 281.3675 15.69706674113911
STARLINK-31846          
1 60126U 24118P   26170.92907778 -.00000377  00000+0 -38362-6 0  9992
2 60126  53.1599 271.5487 0001354  92.0986 268.0171 15.31702254111356
STARLINK-31840          
1 60127U 24118Q   26170.59815548  .00000428  00000+0  25551-4 0  9998
2 60127  53.1597 273.0417 0000935  91.4498 268.6611 15.31699425111305
STARLINK-31813          
1 60128U 24118R   26170.70531087 -.00000224  00000+0  45491-5 0  9996
2 60128  53.1602 272.2906 0001004  89.3396 270.7720 15.31715587111323
STARLINK-31845          
1 60129U 24118S   26170.56062593 -.00004024  00000+0 -12390-3 0  9995
2 60129  53.1606 271.3776 0001346  87.8901 272.2254 15.30174511111321
STARLINK-31838          
1 60130U 24118T   26170.58415856 -.00001485  00000+0 -36107-4 0  9994
2 60130  53.1604 272.9503 0001395  68.6866 291.4284 15.31700047111301
STARLINK-31785          
1 60131U 24118U   26170.57014703 -.00000225  00000+0  45211-5 0  9997
2 60131  53.1602 272.8678 0001006  82.0607 278.0509 15.31710015111301
STARLINK-31792          
1 60132U 24118V   26170.54371352 -.00001999  00000+0 -55403-4 0  9994
2 60132  53.1602 271.2330 0001011  86.8494 273.2623 15.30194362111328
GOES 19                 
1 60133U 24119A   26170.87804852 -.00000254  00000+0  00000+0 0  9998
2 60133   0.0212 176.6459 0000418 353.0288 339.3237  1.00271223  6992
STARLINK-32043          
1 60135U 24120A   26170.39045527 -.00000651  00000+0 -81303-5 0  9998
2 60135  53.1613 207.0681 0001176  88.2535 271.8602 15.34392047111957
STARLINK-32112          
1 60136U 24120B   26170.39255720  .00000194  00000+0  16882-4 0  9996
2 60136  53.1597 207.0851 0001278  93.8285 266.2863 15.34384993112033
STARLINK-32050          
1 60137U 24120C   26170.96616015 -.00001563  00000+0 -35141-4 0  9990
2 60137  53.1597 204.2659 0001220  72.2556 287.8580 15.34397924112042
STARLINK-32025          
1 60138U 24120D   26170.35258491 -.00000430  00000+0 -16002-5 0  9992
2 60138  53.1598 206.8291 0001252  87.7063 272.4083 15.34385414111951
STARLINK-31694          
1 60140U 24120F   26170.39886864  .00001381  00000+0  52035-4 0  9999
2 60140  53.1598 207.1219 0001199  90.8889 269.2251 15.34382281112039
STARLINK-32036          
1 60141U 24120G   26170.40518533 -.00000200  00000+0  52021-5 0  9993
2 60141  53.1591 207.1596 0000942  78.7572 281.3537 15.34388319112030
STARLINK-32031          
1 60142U 24120H   26170.35047820 -.00000244  00000+0  39053-5 0  9992
2 60142  53.1594 206.8195 0001255  94.3329 265.7817 15.34389396112030
STARLINK-32027          
1 60143U 24120J   26170.35468338 -.00000262  00000+0  33707-5 0  9994
2 60143  53.1597 206.8030 0001103  89.4973 270.6156 15.34383644112035
STARLINK-32033          
1 60144U 24120K   26170.91668981  .00046625  00000+0  13832-2 0  9999
2 60144  53.1582 204.8163 0001295  73.5697 210.3082 15.34384661  5810
STARLINK-32029          
1 60145U 24120L   26170.36519937 -.00000138  00000+0  70365-5 0  9992
2 60145  53.1597 206.9089 0001189  77.7508 282.3627 15.34394435111953
STARLINK-32127          
1 60146U 24120M   26170.36100389 -.00001248  00000+0 -25830-4 0  9990
2 60146  53.1600 206.8821 0001241  98.0826 262.0318 15.34381557111953
STARLINK-32019          
1 60147U 24120N   26170.36310522 -.00000299  00000+0  22883-5 0  9993
2 60147  53.1599 206.8973 0001283  94.6181 265.4968 15.34385363111958
STARLINK-32021          
1 60148U 24120P   26170.32277913 -.00001051  00000+0 -22116-4 0  9992
2 60148  53.1596 197.4028 0000963  78.8371 281.2738 15.31695775112164
STARLINK-32022          
1 60149U 24120Q   26170.38412524  .00001475  00000+0  54753-4 0  9998
2 60149  53.1599 207.0243 0001063  81.8958 278.2165 15.34406822112034
STARLINK-32014          
1 60150U 24120R   26170.40308579 -.00002926  00000+0 -75519-4 0  9994
2 60150  53.1608 207.1418 0000862  84.2032 275.9069 15.34398388111952
STARLINK-32004          
1 60151U 24120S   26170.39676516 -.00000263  00000+0  33629-5 0  9990
2 60151  53.1610 207.1026 0001123  80.5816 279.5314 15.34391934112034
STARLINK-32147          
1 60152U 24120T   26170.32111855 -.00003310  00000+0 -86945-4 0  9999
2 60152  53.1594 207.3438 0001266  71.2679 288.8461 15.34373824111940
STARLINK-32131          
1 60153U 24120U   26170.35889788 -.00000127  00000+0  73688-5 0  9993
2 60153  53.1597 206.8689 0001143  90.5779 269.5355 15.34386944112031
STARLINK-32145          
1 60154U 24120V   26170.35679058 -.00000604  00000+0 -67565-5 0  9999
2 60154  53.1601 206.8530 0001217  88.8956 271.2187 15.34387350111957
STARLINK-32137          
1 60155U 24120W   26170.37782878 -.00000484  00000+0 -31809-5 0  9995
2 60155  53.1595 206.9850 0001093  81.8640 278.2486 15.34392131111953
STARLINK-32048          
1 60156U 24120X   26170.37151937 -.00001040  00000+0 -19671-4 0  9993
2 60156  53.1593 206.9455 0001089  77.2676 282.8448 15.34388335111956
STARLINK-32129          
1 60157U 24120Y   26170.37362287 -.00000564  00000+0 -55594-5 0  9991
2 60157  53.1596 206.9606 0001084  77.1259 282.9865 15.34390396112033
ZHONGXING-3A            
1 60179U 24122A   26170.94387038 -.00000319  00000+0  00000+0 0  9994
2 60179   0.0395 113.6670 0001096   7.8293 228.0326  1.00271398  7338
